{
  "links" : {
    "next" : "https://api.nasa.gov/neo/rest/v1/feed?start_date=2015-01-09&end_date=2015-01-09&detailed=true&api_key=t0TVs3DtDT2H8Oy2Zy8m2eVrNsAVKAexjcZXUckd",
    "prev" : "https://api.nasa.gov/neo/rest/v1/feed?start_date=2015-01-07&end_date=2015-01-07&detailed=true&api_key=t0TVs3DtDT2H8Oy2Zy8m2eVrNsAVKAexjcZXUckd",
    "self" : "https://api.nasa.gov/neo/rest/v1/feed?start_date=2015-01-08&end_date=2015-01-08&detailed=true&api_key=t0TVs3DtDT2H8Oy2Zy8m2eVrNsAVKAexjcZXUckd"
  },
  "element_count" : 8,
  "near_earth_objects" : {
    "2015-01-08" : [ {
      "links" : {
        "self" : "https://api.nasa.gov/neo/rest/v1/neo/3703779?api_key=t0TVs3DtDT2H8Oy2Zy8m2eVrNsAVKAexjcZXUckd"
      },
      "neo_reference_id" : "3703779",
      "name" : "(2015 AA45)",
      "nasa_jpl_url" : "http://ssd.jpl.nasa.gov/sbdb.cgi?sstr=3703779",
      "absolute_magnitude_h" : 24.2,
      "estimated_diameter" : {
        "kilometers" : {
          "estimated_diameter_min" : 0.0384197891,
          "estimated_diameter_max" : 0.0859092601
        },
        "meters" : {
          "estimated_diameter_min" : 38.4197891064,
          "estimated_diameter_max" : 85.9092601232
        },
        "miles" : {
          "estimated_diameter_min" : 0.0238729428,
          "estimated_diameter_max" : 0.0533815229
        },
        "feet" : {
          "estimated_diameter_min" : 126.0491808919,
          "estimated_diameter_max" : 281.8545369825
        }
      },
      "is_potentially_hazardous_asteroid" : false,
      "close_approach_data" : [ {
        "close_approach_date" : "2015-01-08",
        "epoch_date_close_approach" : 1420704000000,
        "relative_velocity" : {
          "kilometers_per_second" : "4.4425400287",
          "kilometers_per_hour" : "15993.1441031879",
          "miles_per_hour" : "9937.517790117"
        },
        "miss_distance" : {
          "astronomical" : "0.1979494975",
          "lunar" : "77.0023574829",
          "kilometers" : "29612824",
          "miles" : "18400556"
        },
        "orbiting_body" : "Earth"
      } ],
      "orbital_data" : {
        "orbit_id" : "7",
        "orbit_determination_date" : "2017-04-06 08:36:24",
        "orbit_uncertainty" : "8",
        "minimum_orbit_intersection" : ".186384",
        "jupiter_tisserand_invariant" : "3.329",
        "epoch_osculation" : "2457040.5",
        "eccentricity" : ".5133444251470951",
        "semi_major_axis" : "2.403059775096602",
        "inclination" : "4.204135079961369",
        "ascending_node_longitude" : "115.2144211543367",
        "orbital_period" : "1360.646433432662",
        "perihelion_distance" : "1.169462436255529",
        "perihelion_argument" : "352.0407653640827",
        "aphelion_distance" : "3.636657113937674",
        "perihelion_time" : "2457026.980512781269",
        "mean_anomaly" : "3.576987584103367",
        "mean_motion" : ".2645801224729527",
        "equinox" : "J2000"
      }
    }, {
      "links" : {
        "self" : "https://api.nasa.gov/neo/rest/v1/neo/2343098?api_key=t0TVs3DtDT2H8Oy2Zy8m2eVrNsAVKAexjcZXUckd"
      },
      "neo_reference_id" : "2343098",
      "name" : "343098 (2009 DV42)",
      "nasa_jpl_url" : "http://ssd.jpl.nasa.gov/sbdb.cgi?sstr=2343098",
      "absolute_magnitude_h" : 18.7,
      "estimated_diameter" : {
        "kilometers" : {
          "estimated_diameter_min" : 0.4836764882,
          "estimated_diameter_max" : 1.0815335068
        },
        "meters" : {
          "estimated_diameter_min" : 483.6764882185,
          "estimated_diameter_max" : 1081.533506775
        },
        "miles" : {
          "estimated_diameter_min" : 0.3005425432,
          "estimated_diameter_max" : 0.6720335566
        },
        "feet" : {
          "estimated_diameter_min" : 1586.8651696069,
          "estimated_diameter_max" : 3548.3383903678
        }
      },
      "is_potentially_hazardous_asteroid" : false,
      "close_approach_data" : [ {
        "close_approach_date" : "2015-01-08",
        "epoch_date_close_approach" : 1420704000000,
        "relative_velocity" : {
          "kilometers_per_second" : "12.7367805001",
          "kilometers_per_hour" : "45852.4098001984",
          "miles_per_hour" : "28490.9043005733"
        },
        "miss_distance" : {
          "astronomical" : "0.3796155356",
          "lunar" : "147.6704406738",
          "kilometers" : "56789676",
          "miles" : "35287468"
        },
        "orbiting_body" : "Earth"
      } ],
      "orbital_data" : {
        "orbit_id" : "123",
        "orbit_determination_date" : "2017-04-23 06:19:39",
        "orbit_uncertainty" : "0",
        "minimum_orbit_intersection" : ".19576",
        "jupiter_tisserand_invariant" : "4.229",
        "epoch_osculation" : "2458000.5",
        "eccentricity" : ".2752003994161489",
        "semi_major_axis" : "1.614990296877244",
        "inclination" : "19.92374159560789",
        "ascending_node_longitude" : "117.0221153879993",
        "orbital_period" : "749.640950951692",
        "perihelion_distance" : "1.170544322123422",
        "perihelion_argument" : "343.8063006166972",
        "aphelion_distance" : "2.059436271631066",
        "perihelion_time" : "2457791.826357304697",
        "mean_anomaly" : "100.2113228672188",
        "mean_motion" : ".4802299014521139",
        "equinox" : "J2000"
      }
    }, {
      "links" : {
        "self" : "https://api.nasa.gov/neo/rest/v1/neo/3485969?api_key=t0TVs3DtDT2H8Oy2Zy8m2eVrNsAVKAexjcZXUckd"
      },
      "neo_reference_id" : "3485969",
      "name" : "(2010 AN61)",
      "nasa_jpl_url" : "http://ssd.jpl.nasa.gov/sbdb.cgi?sstr=3485969",
      "absolute_magnitude_h" : 27.0,
      "estimated_diameter" : {
        "kilometers" : {
          "estimated_diameter_min" : 0.0105816886,
          "estimated_diameter_max" : 0.023661375
        },
        "meters" : {
          "estimated_diameter_min" : 10.5816885933,
          "estimated_diameter_max" : 23.6613750114
        },
        "miles" : {
          "estimated_diameter_min" : 0.0065751544,
          "estimated_diameter_max" : 0.0147024923
        },
        "feet" : {
          "estimated_diameter_min" : 34.7168272045,
          "estimated_diameter_max" : 77.6291855923
        }
      },
      "is_potentially_hazardous_asteroid" : false,
      "close_approach_data" : [ {
        "close_approach_date" : "2015-01-08",
        "epoch_date_close_approach" : 1420704000000,
        "relative_velocity" : {
          "kilometers_per_second" : "3.8647731383",
          "kilometers_per_hour" : "13913.18329789",
          "miles_per_hour" : "8645.1110330695"
        },
        "miss_distance" : {
          "astronomical" : "0.0746299373",
          "lunar" : "29.0310459137",
          "kilometers" : "11164480",
          "miles" : "6937286.5"
        },
        "orbiting_body" : "Earth"
      } ],
      "orbital_data" : {
        "orbit_id" : "11",
        "orbit_determination_date" : "2017-04-06 08:58:34",
        "orbit_uncertainty" : "6",
        "minimum_orbit_intersection" : ".0219832",
        "jupiter_tisserand_invariant" : "5.431",
        "epoch_osculation" : "2458000.5",
        "eccentricity" : ".1322655425889176",
        "semi_major_axis" : "1.156767954524072",
        "inclination" : "3.611997914914391",
        "ascending_node_longitude" : "116.4297300531031",
        "orbital_period" : "454.430843423104",
        "perihelion_distance" : "1.003767413369473",
        "perihelion_argument" : "8.682026615424819",
        "aphelion_distance" : "1.30976849567867",
        "perihelion_time" : "2457952.700432195501",
        "mean_anomaly" : "37.86680560676187",
        "mean_motion" : ".792199748785135",
        "equinox" : "J2000"
      }
    } ]
  }
}